ONEWEB-0363             
1 49289U 21090L   25261.72804969 -.00000004  00000+0 -41909-4 0  9997
2 49289  87.9265 328.5614 0002152  90.1606 269.9774 13.20770437194475
ONEWEB-0364             
1 49290U 21090M   25261.69017035  .00000111  00000+0  24184-3 0  9997
2 49290  87.9260 328.5956 0001928  95.2390 264.8964 13.20769911195603
ONEWEB-0365             
1 49291U 21090N   25261.76258296  .00000135  00000+0  30496-3 0  9991
2 49291  87.9294 358.9211 0001822 100.0299 260.1039 13.19724892190624
ONEWEB-0366             
1 49292U 21090P   25261.77151579  .00000073  00000+0  16286-3 0  9991
2 49292  87.9084 343.7656 0001911  99.1778 260.9568 13.14503231191900
ONEWEB-0367             
1 49293U 21090Q   25261.72646211 -.00000018  00000+0 -77163-4 0  9992
2 49293  87.9268 328.5574 0001839 104.0167 256.1171 13.20769505193995
ONEWEB-0368             
1 49294U 21090R   25261.69963976  .00000006  00000+0 -17813-4 0  9991
2 49294  87.9265 328.5984 0001600  73.4236 286.7073 13.20769479195149
ONEWEB-0369             
1 49295U 21090S   25261.83366849 -.00000009  00000+0 -55754-4 0  9994
2 49295  87.9290 358.9389 0001774 100.9233 259.2099 13.19725582190625
ONEWEB-0370             
1 49296U 21090T   25261.73593939  .00000019  00000+0  15331-4 0  9992
2 49296  87.9272 328.5636 0002036 110.6914 249.4438 13.20769702194031
